NORAD_CAT_ID,OBJECT_NAME,OBJECT_TYPE,EPOCH,MEAN_MOTION,ECCENTRICITY,INCLINATION,RA_OF_ASC_NODE,ARG_OF_PERICENTER,MEAN_ANOMALY,BSTAR,MEAN_MOTION_DOT,MEAN_MOTION_DDOT,TLE_LINE0,TLE_LINE1,TLE_LINE2,SEMIMAJOR_AXIS,PERIOD,APOGEE,PERIGEE,DECAYED
52569.0,STARLINK-3927,PAYLOAD,2023-02-03 07:30:56,15.08828309,0.0001078,53.2168,153.5824,84.3517,275.7598,6.669e-05,7.73e-06,0.0,0 STARLINK-3927,1 52569U 22051AN  23034.31315068  .00000773  00000-0  66690-4 0  9994,2 52569  53.2168 153.5824 0001078  84.3517 275.7598 15.08828309 41008,6917.916,95.438,540.527,539.035,0.0
52569.0,STARLINK-3927,PAYLOAD,2023-02-03 17:03:15,15.08828477,0.0001374,53.2159,151.7976,94.6752,265.4397,9.8261e-05,1.276e-05,0.0,0 STARLINK-3927,1 52569U 22051AN  23034.71059225  .00001276  00000-0  98261-4 0  9996,2 52569  53.2159 151.7976 0001374  94.6752 265.4397 15.08828477 40996,6917.916,95.438,540.731,538.83,0.0
52569.0,STARLINK-3927,PAYLOAD,2023-02-04 07:21:42,15.08843128,9.12e-05,53.2147,149.1208,88.503,271.6067,3.7906e-05,3.16e-06,0.0,0 STARLINK-3927,1 52569U 22051AN  23035.30674648  .00000316  00000-0  37906-4 0  9997,2 52569  53.2147 149.1208 0000912  88.5030 271.6067 15.08843128 41152,6917.871,95.437,540.367,539.105,0.0
52569.0,STARLINK-3927,PAYLOAD,2023-02-04 13:43:15,15.0884217,9.24e-05,53.2163,147.9347,39.8448,320.2612,0.00013131,1.803e-05,0.0,0 STARLINK-3927,1 52569U 22051AN  23035.57170466  .00001803  00000-0  13131-3 0  9990,2 52569  53.2163 147.9347 0000924  39.8448 320.2612 15.08842170 41125,6917.874,95.437,540.378,539.1,0.0
52569.0,STARLINK-3927,PAYLOAD,2023-02-04 16:54:00,15.08853164,0.0001031,53.2159,147.3371,92.9593,267.1517,6.3028e-05,7.16e-06,0.0,0 STARLINK-3927,1 52569U 22051AN  23035.70417802  .00000716  00000-0  63028-4 0  9996,2 52569  53.2159 147.3371 0001031  92.9593 267.1517 15.08853164 41210,6917.84,95.437,540.418,538.992,0.0
52569.0,STARLINK-3927,PAYLOAD,2023-02-05 00:50:57,15.08838834,0.0001379,53.2184,145.8513,86.9497,273.1653,0.00010558,1.393e-05,0.0,0 STARLINK-3927,1 52569U 22051AN  23036.03538653  .00001393  00000-0  10558-3 0  9992,2 52569  53.2184 145.8513 0001379  86.9497 273.1653 15.08838834 41260,6917.884,95.438,540.703,538.795,0.0
52569.0,STARLINK-3927,PAYLOAD,2023-02-05 13:34:02,15.0883784,0.0001159,53.2174,143.4745,77.6063,282.5059,5.3791e-05,5.68e-06,0.0,0 STARLINK-3927,1 52569U 22051AN  23036.56531043  .00000568  00000-0  53791-4 0  9996,2 52569  53.2174 143.4745 0001159  77.6063 282.5059 15.08837840 41273,6917.887,95.438,540.554,538.95,0.0
52569.0,STARLINK-3927,PAYLOAD,2023-02-05 16:44:48,15.08843185,9.9e-05,53.2167,142.8773,82.5089,277.6015,8.6916e-05,1.096e-05,0.0,0 STARLINK-3927,1 52569U 22051AN  23036.69778549  .00001096  00000-0  86916-4 0  9996,2 52569  53.2167 142.8773 0000990  82.5089 277.6015 15.08843185 41292,6917.871,95.437,540.421,539.051,0.0
52569.0,STARLINK-3927,PAYLOAD,2023-02-06 11:49:26,15.08846839,0.0001131,53.218,139.3106,91.3272,268.7849,0.00010869,1.443e-05,0.0,0 STARLINK-3927,1 52569U 22051AN  23037.49266274  .00001443  00000-0  10869-3 0  9991,2 52569  53.2180 139.3106 0001131  91.3272 268.7849 15.08846839 41484,6917.859,95.437,540.507,538.942,0.0
52569.0,STARLINK-3927,PAYLOAD,2023-02-06 13:24:48,15.08852588,0.0001159,53.2181,139.0134,93.5722,266.5403,7.6411e-05,9.29e-06,0.0,0 STARLINK-3927,1 52569U 22051AN  23037.55889992  .00000929  00000-0  76411-4 0  9990,2 52569  53.2181 139.0134 0001159  93.5722 266.5403 15.08852588 41421,6917.842,95.437,540.509,538.905,0.0
52569.0,STARLINK-3927,PAYLOAD,2023-02-06 16:35:34,15.08856684,0.0001263,53.2179,138.4142,113.6465,246.466,6.936e-05,8.17e-06,0.0,0 STARLINK-3927,1 52569U 22051AN  23037.69137589  .00000817  00000-0  69360-4 0  9994,2 52569  53.2179 138.4142 0001263 113.6465 246.4660 15.08856684 41517,6917.829,95.436,540.568,538.821,0.0
52569.0,STARLINK-3927,PAYLOAD,2023-02-07 06:54:04,15.08835689,9.71e-05,53.2174,135.7422,97.7284,262.3819,0.00011017,1.466e-05,0.0,0 STARLINK-3927,1 52569U 22051AN  23038.28754852  .00001466  00000-0  11017-3 0  9994,2 52569  53.2174 135.7422 0000971  97.7284 262.3819 15.08835689 41604,6917.894,95.438,540.43,539.087,0.0
52569.0,STARLINK-3927,PAYLOAD,2023-02-07 13:15:35,15.08857089,0.0001315,53.2173,134.55,120.7749,239.3373,0.00018864,2.717e-05,0.0,0 STARLINK-3927,1 52569U 22051AN  23038.55249145  .00002717  00000-0  18864-3 0  9995,2 52569  53.2173 134.5500 0001315 120.7749 239.3373 15.08857089 41644,6917.828,95.436,540.603,538.783,0.0
52569.0,STARLINK-3927,PAYLOAD,2023-02-08 06:44:51,15.08831042,0.0001367,53.2172,131.2787,77.6266,282.4879,-0.00026183,-4.451e-05,0.0,0 STARLINK-3927,1 52569U 22051AN  23039.28114611 -.00004451  00000-0 -26183-3 0  9997,2 52569  53.2172 131.2787 0001367  77.6266 282.4879 15.08831042 41758,6917.908,95.438,540.718,538.827,0.0
52569.0,STARLINK-3927,PAYLOAD,2023-02-08 13:06:23,15.08839596,0.0001462,53.2183,130.0961,94.3723,265.7436,-6.8693e-05,-1.381e-05,0.0,0 STARLINK-3927,1 52569U 22051AN  23039.54610351 -.00001381  00000-0 -68693-4 0  9990,2 52569  53.2183 130.0961 0001462  94.3723 265.7436 15.08839596 41790,6917.882,95.438,540.758,538.735,0.0
52569.0,STARLINK-3927,PAYLOAD,2023-02-09 05:00:15,15.08830502,0.0001308,53.2169,127.1195,95.3017,264.8124,-3.3498e-05,-8.21e-06,0.0,0 STARLINK-3927,1 52569U 22051AN  23040.20850914 -.00000821  00000-0 -33498-4 0  9999,2 52569  53.2169 127.1195 0001308  95.3017 264.8124 15.08830502 41899,6917.909,95.438,540.679,538.87,0.0
52569.0,STARLINK-3927,PAYLOAD,2023-02-09 11:21:47,15.08843676,0.0001432,53.2153,125.9269,134.0563,226.0547,-1.2496e-05,-4.87e-06,0.0,0 STARLINK-3927,1 52569U 22051AN  23040.47346111 -.00000487  00000-0 -12496-4 0  9990,2 52569  53.2153 125.9269 0001432 134.0563 226.0547 15.08843676 41867,6917.869,95.437,540.725,538.744,0.0
52569.0,STARLINK-3927,PAYLOAD,2023-02-09 12:57:10,15.08846797,0.0001226,53.2168,125.6295,102.388,257.725,5.0988e-05,5.24e-06,0.0,0 STARLINK-3927,1 52569U 22051AN  23040.53970142  .00000524  00000-0  50988-4 0  9992,2 52569  53.2168 125.6295 0001226 102.3880 257.7250 15.08846797 41948,6917.86,95.437,540.573,538.876,0.0
52569.0,STARLINK-3927,PAYLOAD,2023-02-10 00:04:52,15.08841985,0.0001353,53.2159,123.5513,72.4237,287.6903,7.1827e-05,8.55e-06,0.0,0 STARLINK-3927,1 52569U 22051AN  23041.00338550  .00000855  00000-0  71827-4 0  9998,2 52569  53.2159 123.5513 0001353  72.4237 287.6903 15.08841985 42012,6917.874,95.437,540.675,538.803,0.0
52569.0,STARLINK-3927,PAYLOAD,2023-02-10 03:15:40,15.08815714,0.0001415,53.2168,122.9578,81.9909,278.1244,-7.5739e-05,-1.492e-05,0.0,0 STARLINK-3927,1 52569U 22051AN  23041.13588117 -.00001492  00000-0 -75739-4 0  9994,2 52569  53.2168 122.9578 0001415  81.9909 278.1244 15.08815714 41963,6917.955,95.439,540.799,538.841,0.0
52569.0,STARLINK-3927,PAYLOAD,2023-02-10 12:47:58,15.088366,0.0001372,53.2157,121.172,66.4371,293.6765,0.0001645,2.331e-05,0.0,0 STARLINK-3927,1 52569U 22051AN  23041.53331459  .00002331  00000-0  16450-3 0  9998,2 52569  53.2157 121.1720 0001372  66.4371 293.6765 15.08836600 42096,6917.891,95.438,540.705,538.807,0.0
52569.0,STARLINK-3927,PAYLOAD,2023-02-11 04:41:50,15.08832177,0.0001586,53.215,118.1967,70.8564,289.2599,0.00013165,1.807e-05,0.0,0 STARLINK-3927,1 52569U 22051AN  23042.19572064  .00001807  00000-0  13165-3 0  9997,2 52569  53.2150 118.1967 0001586  70.8564 289.2599 15.08832177 42190,6917.904,95.438,540.866,538.672,0.0
52569.0,STARLINK-3927,PAYLOAD,2023-02-11 07:52:36,15.08834304,0.0001198,53.2163,117.6021,80.4349,279.6778,0.00022536,3.3e-05,0.0,0 STARLINK-3927,1 52569U 22051AN  23042.32819900  .00003300  00000-0  22536-3 0  9997,2 52569  53.2163 117.6021 0001198  80.4349 279.6778 15.08834304 42147,6917.898,95.438,540.592,538.934,0.0
52569.0,STARLINK-3927,PAYLOAD,2023-02-11 11:03:22,15.08846862,0.0001276,53.2165,117.0059,68.1113,292.0015,0.00018374,2.638e-05,0.0,0 STARLINK-3927,1 52569U 22051AN  23042.46067301  .00002638  00000-0  18374-3 0  9990,2 52569  53.2165 117.0059 0001276  68.1113 292.0015 15.08846862 42160,6917.859,95.437,540.607,538.842,0.0
52569.0,STARLINK-3927,PAYLOAD,2023-02-11 22:11:03,15.08851082,0.0001266,53.2152,114.9256,77.8098,282.3036,0.00020294,2.944e-05,0.0,0 STARLINK-3927,1 52569U 22051AN  23042.92434961  .00002944  00000-0  20294-3 0  9995,2 52569  53.2152 114.9256 0001266  77.8098 282.3036 15.08851082 42300,6917.847,95.437,540.587,538.836,0.0
52569.0,STARLINK-3927,PAYLOAD,2023-02-12 07:43:23,15.08835065,0.0001419,53.2156,113.1421,79.235,280.8801,0.00024159,3.559e-05,0.0,0 STARLINK-3927,1 52569U 22051AN  23043.32180066  .00003559  00000-0  24159-3 0  9991,2 52569  53.2156 113.1421 0001419  79.2350 280.8801 15.08835065 42368,6917.895,95.438,540.742,538.779,0.0
52569.0,STARLINK-3927,PAYLOAD,2023-02-12 10:54:09,15.08842213,0.0001369,53.2154,112.5464,82.1976,277.9172,0.00032514,4.891e-05,0.0,0 STARLINK-3927,1 52569U 22051AN  23043.45427717  .00004891  00000-0  32514-3 0  9996,2 52569  53.2154 112.5464 0001369  82.1976 277.9172 15.08842213 42313,6917.874,95.437,540.686,538.792,0.0
52569.0,STARLINK-3927,PAYLOAD,2023-02-12 22:01:50,15.08851393,0.0001341,53.2157,110.4642,83.0302,277.0842,0.00025317,3.745e-05,0.0,0 STARLINK-3927,1 52569U 22051AN  23043.91795115  .00003745  00000-0  25317-3 0  9997,2 52569  53.2157 110.4642 0001341  83.0302 277.0842 15.08851393 42453,6917.846,95.437,540.638,538.783,0.0
52569.0,STARLINK-3927,PAYLOAD,2023-02-13 05:58:46,15.08842788,0.0001465,53.2151,108.9775,94.9999,265.1161,0.00015419,2.167e-05,0.0,0 STARLINK-3927,1 52569U 22051AN  23044.24915435  .00002167  00000-0  15419-3 0  9992,2 52569  53.2151 108.9775 0001465  94.9999 265.1161 15.08842788 42502,6917.872,95.437,540.75,538.723,0.0
52569.0,STARLINK-3927,PAYLOAD,2023-02-13 10:44:56,15.08857255,0.0001488,53.2152,108.0856,93.3936,266.7227,0.00096429,0.00015099,0.0,0 STARLINK-3927,1 52569U 22051AN  23044.44787250  .00015099  00000-0  96429-3 0  9994,2 52569  53.2152 108.0856 0001488  93.3936 266.7227 15.08857255 42463,6917.828,95.436,540.722,538.663,0.0
